CUTE-1 (CO-55)          
1 27844U 03031E   26179.48757997  .00000272  00000+0  13667-3 0  9999
2 27844  98.6736 187.9043 0010221 146.4668 213.7159 14.24342303193286
CUBESAT XI-IV (CO-57)   
1 27848U 03031J   26179.55199356  .00000229  00000+0  11941-3 0  9995
2 27848  98.6768 187.6716 0009707 163.9321 196.2167 14.23626546192990
CUBESAT XI-V            
1 28895U 05043F   26179.68160511  .00001412  00000+0  22953-3 0  9998
2 28895  98.2995 335.5454 0014446 164.3904 195.7751 14.72661458103442
CUTE-1.7+APD II (CO-65) 
1 32785U 08021C   26179.91553848  .00004670  00000+0  29489-3 0  9995
2 32785  97.8271 161.5787 0008562   1.2386 358.8861 15.09559374986962
CANX-2                  
1 32790U 08021H   26179.91830938  .00003017  00000+0  21301-3 0  9998
2 32790  97.8633 159.9248 0010505  14.9344 345.2190 15.05697872986572
SEEDS II (CO-66)        
1 32791U 08021J   26179.95056021  .00017427  00000+0  54621-3 0  9997
2 32791  97.7514 178.4126 0000917 200.7321 159.3883 15.33144634989094
SWISSCUBE               
1 35932U 09051B   26179.73113070  .00000934  00000+0  19406-3 0  9992
2 35932  98.4027  87.8203 0006798 165.5410 194.5986 14.62502262890845
BEESAT-1                
1 35933U 09051C   26179.67813002  .00000785  00000+0  16739-3 0  9998
2 35933  98.3955  87.3776 0004989 176.9996 183.1235 14.61737811890862
ITUPSAT1                
1 35935U 09051E   26179.54206212  .00000711  00000+0  15671-3 0  9998
2 35935  98.4040  86.4193 0006875 194.0038 166.0972 14.60456331890397
TISAT 1                 
1 36799U 10035E   26179.80929573  .00020182  00000+0  65208-3 0  9997
2 36799  98.0708 127.3929 0002959 148.5212 211.6205 15.32141146869489
AEROCUBE 4.5A           
1 38767U 12048K   26179.82591045  .01481135  17178-2  11602-2 0  9996
2 38767  64.6159 343.7911 0018389 262.2043  97.7041 16.14389118374521
STRAND-1                
1 39090U 13009E   26179.75244648  .00000274  00000+0  10650-3 0  9996
2 39090  98.3924 359.7023 0008379 188.3132 171.7918 14.37169921698729
BRITE-AUSTRIA           
1 39091U 13009F   26179.77032627  .00000164  00000+0  70283-4 0  9998
2 39091  98.3998 358.9195 0009724 199.1211 160.9612 14.36546417698713
NEE-01 PEGASO           
1 39151U 13018B   26179.31888920  .00002156  00000+0  20921-3 0  9996
2 39151  98.1232 323.8378 0013556 125.0039 235.2454 14.93713938712362
POPACS 2                
1 39269U 13055E   26179.85130610  .00014026  00000+0  23481-3 0  9995
2 39269  80.9909 130.8393 0416343 156.3196 205.7817 14.91518117664953
POPACS 3                
1 39270U 13055F   26179.79984126  .00009912  00000+0  23370-3 0  9994
2 39270  81.0000 216.5952 0550942  34.6478 328.9340 14.56334733640243
ZACUBE-1 (TSHEPISOSAT)  
1 39417U 13066B   26179.93847879  .00002723  00000+0  21285-3 0  9994
2 39417  97.8045 142.3355 0042448 207.8298 152.0656 15.01250622682498
WNISAT-1                
1 39423U 13066H   26179.94614385  .00001168  00000+0  22040-3 0  9998
2 39423  97.7213 328.2685 0162714 194.3796 165.2746 14.58085307668446
TRITON-1                
1 39427U 13066M   26179.97846471  .00002251  00000+0  27317-3 0  9994
2 39427  97.8243  89.5173 0089297 194.9381 164.9193 14.81744148675837
GOMX-1                  
1 39430U 13066Q   26179.82972443  .00001745  00000+0  26623-3 0  9997
2 39430  97.6480  19.5579 0129666  40.5883 320.4903 14.69499060671620
CUBEBUG-2 (LO-74)       
1 39440U 13066AA  26179.85235882  .00004059  00000+0  37581-3 0  9996
2 39440  97.8906 128.8804 0057172 350.4487   9.5641 14.93854325678735
NEE-02 KRYSAOR          
1 39441U 13066AB  26179.78593827  .00002536  00000+0  28047-3 0  9990
2 39441  97.8895 118.9181 0066946  32.8970 327.6385 14.86670069677920
FUNCUBE-1 (AO-73)       
1 39444U 13066AE  26179.92186698  .00006331  00000+0  39163-3 0  9991
2 39444  97.8277 151.6136 0036884 160.9318 199.3301 15.09627566681431
UWE-3                   
1 39446U 13066AG  26179.84552922  .00002989  00000+0  25871-3 0  9997
2 39446  97.8711 135.9993 0046889 281.4584  78.1373 14.97114508679323
BRITE-CA1 (TORONTO)     
1 40020U 14033L   26179.86010308  .00000874  00000+0  13886-3 0  9995
2 40020  97.9752 308.5737 0077426 238.9986 120.3601 14.72694477643930
DUCHIFAT-1              
1 40021U 14033M   26179.97276446  .00117244  00000+0  10875-2 0  9999
2 40021  98.0456 240.8096 0000645 103.8669 256.2662 15.67092926657596
NANOSATC-BR1            
1 40024U 14033Q   26179.63845997  .00016168  00000+0  52837-3 0  9996
2 40024  98.0715 213.0430 0005155 135.6679 224.4974 15.31817768655733
QB50P1                  
1 40025U 14033R   26179.94666857  .00007280  00000+0  35692-3 0  9992
2 40025  98.0958 191.9181 0009054 174.0435 186.0906 15.18434109654814
QB50P2                  
1 40032U 14033Y   26179.92091746  .00006503  00000+0  34883-3 0  9995
2 40032  98.0748 177.5324 0009015 128.4795 231.7245 15.15307275654440
PERSEUS-M2              
1 40037U 14033AD  26179.90570773  .00000760  00000+0  74009-4 0  9994
2 40037  97.9970 130.6860 0010175 261.5750  98.4317 14.95545884652537
