OBJECT_NAME,OBJECT_ID,EPOCH,MEAN_MOTION,ECCENTRICITY,INCLINATION,RA_OF_ASC_NODE,ARG_OF_PERICENTER,MEAN_ANOMALY,EPHEMERIS_TYPE,CLASSIFICATION_TYPE,NORAD_CAT_ID,ELEMENT_SET_NO,REV_AT_EPOCH,BSTAR,MEAN_MOTION_DOT,MEAN_MOTION_DDOT
CUTE-1 (CO-55),2003-031E,2026-06-28T11:42:06.909408,14.24342303,.00102213,98.6736,187.9043,146.4668,213.7159,0,U,27844,999,19328,.13667046E-3,.272E-5,0
CUBESAT XI-IV (CO-57),2003-031J,2026-06-28T13:14:52.243584,14.23626546,.00097074,98.6768,187.6716,163.9321,196.2167,0,U,27848,999,19299,.11941018E-3,.229E-5,0
CUBESAT XI-V,2005-043F,2026-06-28T16:21:30.681504,14.72661458,.00144469,98.2995,335.5454,164.3904,195.7751,0,U,28895,999,10344,.22952897E-3,.1412E-4,0
CUTE-1.7+APD II (CO-65),2008-021C,2026-06-28T21:58:22.524672,15.09559374,.0008562,97.8271,161.5787,1.2386,358.8861,0,U,32785,999,98696,.29488651E-3,.467E-4,0
CANX-2,2008-021H,2026-06-28T22:02:21.930432,15.05697872,.00105056,97.8633,159.9248,14.9344,345.2190,0,U,32790,999,98657,.21301075E-3,.3017E-4,0
SEEDS II (CO-66),2008-021J,2026-06-28T22:48:48.402144,15.33144634,.0000917,97.7514,178.4126,200.7321,159.3883,0,U,32791,999,98909,.54621038E-3,.17427E-3,0
SWISSCUBE,2009-051B,2026-06-28T17:32:49.692480,14.62502262,.00067983,98.4027,87.8203,165.5410,194.5986,0,U,35932,999,89084,.19405545E-3,.934E-5,0
BEESAT-1,2009-051C,2026-06-28T16:16:30.433728,14.61737811,.00049895,98.3955,87.3776,176.9996,183.1235,0,U,35933,999,89086,.16738742E-3,.785E-5,0
ITUPSAT1,2009-051E,2026-06-28T13:00:34.167168,14.60456331,.0006875,98.4040,86.4193,194.0038,166.0972,0,U,35935,999,89039,.15671078E-3,.711E-5,0
TISAT 1,2010-035E,2026-06-28T19:25:23.151072,15.32141146,.00029594,98.0708,127.3929,148.5212,211.6205,0,U,36799,999,86948,.65207543E-3,.20182E-3,0
AEROCUBE 4.5A,2012-048K,2026-06-28T19:49:18.662880,16.14389118,.00183898,64.6159,343.7911,262.2043,97.7041,0,U,38767,999,37452,.11602006E-2,.1481135E-1,.17178434E-2
STRAND-1,2013-009E,2026-06-28T18:03:31.375872,14.37169921,.00083797,98.3924,359.7023,188.3132,171.7918,0,U,39090,999,69872,.10650495E-3,.274E-5,0
BRITE-AUSTRIA,2013-009F,2026-06-28T18:29:16.189728,14.36546417,.00097249,98.3998,358.9195,199.1211,160.9612,0,U,39091,999,69871,.70282904E-4,.164E-5,0
NEE-01 PEGASO,2013-018B,2026-06-28T07:39:12.026880,14.93713938,.00135564,98.1232,323.8378,125.0039,235.2454,0,U,39151,999,71236,.2092148E-3,.2156E-4,0
POPACS 2,2013-055E,2026-06-28T20:25:52.847040,14.91518117,.0416343,80.9909,130.8393,156.3196,205.7817,0,U,39269,999,66495,.23480787E-3,.14026E-3,0
POPACS 3,2013-055F,2026-06-28T19:11:46.284864,14.56334733,.05509425,81.0000,216.5952,34.6478,328.9340,0,U,39270,999,64024,.23370323E-3,.9912E-4,0
ZACUBE-1 (TSHEPISOSAT),2013-066B,2026-06-28T22:31:24.567456,15.01250622,.00424483,97.8045,142.3355,207.8298,152.0656,0,U,39417,999,68249,.21285344E-3,.2723E-4,0
WNISAT-1,2013-066H,2026-06-28T22:42:26.828640,14.58085307,.01627145,97.7213,328.2685,194.3796,165.2746,0,U,39423,999,66844,.22039517E-3,.1168E-4,0
TRITON-1,2013-066M,2026-06-28T23:28:59.350944,14.81744148,.00892976,97.8243,89.5173,194.9381,164.9193,0,U,39427,999,67583,.27317318E-3,.2251E-4,0
GOMX-1,2013-066Q,2026-06-28T19:54:48.190752,14.69499060,.01296662,97.6480,19.5579,40.5883,320.4903,0,U,39430,999,67162,.2662331E-3,.1745E-4,0
CUBEBUG-2 (LO-74),2013-066AA,2026-06-28T20:27:23.802048,14.93854325,.00571723,97.8906,128.8804,350.4487,9.5641,0,U,39440,999,67873,.37581109E-3,.4059E-4,0
NEE-02 KRYSAOR,2013-066AB,2026-06-28T18:51:45.066528,14.86670069,.00669467,97.8895,118.9181,32.8970,327.6385,0,U,39441,999,67792,.28047161E-3,.2536E-4,0
FUNCUBE-1 (AO-73),2013-066AE,2026-06-28T22:07:29.307072,15.09627566,.00368849,97.8277,151.6136,160.9318,199.3301,0,U,39444,999,68143,.39162951E-3,.6331E-4,0
UWE-3,2013-066AG,2026-06-28T20:17:33.724608,14.97114508,.00468892,97.8711,135.9993,281.4584,78.1373,0,U,39446,999,67932,.258706E-3,.2989E-4,0
BRITE-CA1 (TORONTO),2014-033L,2026-06-28T20:38:32.906112,14.72694477,.00774264,97.9752,308.5737,238.9986,120.3601,0,U,40020,999,64393,.13886385E-3,.874E-5,0
DUCHIFAT-1,2014-033M,2026-06-28T23:20:46.849344,15.67092926,.00006459,98.0456,240.8096,103.8669,256.2662,0,U,40021,999,65759,.10874878E-2,.117244E-2,0
NANOSATC-BR1,2014-033Q,2026-06-28T15:19:22.941408,15.31817768,.00051553,98.0715,213.0430,135.6679,224.4974,0,U,40024,999,65573,.52837199E-3,.16168E-3,0
QB50P1,2014-033R,2026-06-28T22:43:12.164448,15.18434109,.00090549,98.0958,191.9181,174.0435,186.0906,0,U,40025,999,65481,.35692126E-3,.728E-4,0
QB50P2,2014-033Y,2026-06-28T22:06:07.268544,15.15307275,.00090158,98.0748,177.5324,128.4795,231.7245,0,U,40032,999,65444,.34882759E-3,.6503E-4,0
PERSEUS-M2,2014-033AD,2026-06-28T21:44:13.147872,14.95545884,.00101753,97.9970,130.6860,261.5750,98.4317,0,U,40037,999,65253,.74009471E-4,.76E-5,0
